OSCAR 7 (AO-7)          
1 07530U 74089B   19268.18302270 -.00000021  00000-0  14766-3 0  9993
2 07530 101.7560 234.8739 0012158 155.3380 275.0910 12.53640019 52861
UOSAT 2 (UO-11)         
1 14781U 84021B   19268.13582638  .00000047  00000-0  11881-4 0  9992
2 14781  97.6068 288.1732 0008540   6.9951 353.1381 14.83107686913356
LUSAT (LO-19)           
1 20442U 90005G   19267.42686954 -.00000019  00000-0  94761-5 0  9998
2 20442  98.6551 209.2929 0010982 217.3805 142.6616 14.32933167550372
ITAMSAT (IO-26)         
1 22826U 93061D   19267.85165469 -.00000000  00000-0  17844-4 0  9997
2 22826  98.9053 258.7426 0009930  64.7637 295.4573 14.30400884356184
RADIO ROSTO (RS-15)     
1 23439U 94085A   19267.78509256 -.00000048  00000-0 -15927-3 0  9995
2 23439  64.8172 317.4972 0145385  94.1633 267.5920 11.27568137 19110
JAS-2 (FO-29)           
1 24278U 96046B   19268.19146402  .00000000  00000-0  37908-4 0  9992
2 24278  98.5525  48.2976 0350062 344.8256  14.2591 13.53093412141125
TECHSAT 1B (GO-32)      
1 25397U 98043D   19267.09901336 -.00000017  00000-0  11815-4 0  9995
2 25397  98.6943 206.0877 0002339 101.5611 258.5830 14.23670885101736
ISS (ZARYA)             
1 25544U 98067A   19268.33979376  .00000983  00000-0  25179-4 0  9991
2 25544  51.6429 224.5706 0007545  83.4716  73.9411 15.50108787190798
PCSAT (NO-44)           
1 26931U 01043C   19268.07954228 -.00000028  00000-0  21033-4 0  9996
2 26931  67.0497 109.7915 0007434 270.4539  89.5711 14.30553070939040
SAUDISAT 1C (SO-50)     
1 27607U 02058C   19267.34506904 -.00000035  00000-0  15908-4 0  9999
2 27607  64.5537 111.0324 0076511 237.5888 121.7797 14.75572828901448
CUTE-1 (CO-55)          
1 27844U 03031E   19267.86707561  .00000053  00000-0  43563-4 0  9990
2 27844  98.6855 274.6167 0010954 105.4026 254.8363 14.22195690842248
CUBESAT XI-IV (CO-57)   
1 27848U 03031J   19267.46496963  .00000039  00000-0  37395-4 0  9991
2 27848  98.6931 274.7409 0010752 117.0327 243.1949 14.21788606842038
MOZHAYETS 4 (RS-22)     
1 27939U 03042A   19268.14381371  .00000115  00000-0  29187-4 0  9991
2 27939  98.0545  42.1186 0014168 114.0175 246.2515 14.66804383854975
CUBESAT XI-V            
1 28895U 05043F   19267.88116966  .00000106  00000-0  29167-4 0  9990
2 28895  97.9734  47.3254 0017683  45.3609 314.9032 14.63692676741846
CUTE-1.7+APD II (CO-65) 
1 32785U 08021C   19267.84290089  .00000166  00000-0  23495-4 0  9991
2 32785  97.5550 262.9523 0011719 301.4882  58.5189 14.88347111618281
DELFI-C3 (DO-64)        
1 32789U 08021G   19266.95666439  .00001212  00000-0  84609-4 0  9999
2 32789  97.4555 313.6484 0013141 146.9957 213.2094 15.07119735621612
SEEDS II (CO-66)        
1 32791U 08021J   19267.96425858  .00000324  00000-0  38254-4 0  9990
2 32791  97.5311 269.1331 0011787 271.0878  88.8990 14.90872605618753
YUBILEINY (RS-30)       
1 32953U 08025A   19267.99582534  .00000020  00000-0  75656-4 0  9992
2 32953  82.4986  83.6255 0018685 275.7684  84.1270 12.43091197514523
KKS-1 (KISEKI)          
1 33499U 09002H   19267.19479716  .00000058  00000-0  16538-4 0  9998
2 33499  98.3438 108.9866 0007904 254.6908 105.3427 14.75463347573604
SWISSCUBE               
1 35932U 09051B   19266.95535907  .00000102  00000-0  34181-4 0  9998
2 35932  98.5975  75.8312 0006840 220.9460 139.1223 14.56310824530939
BEESAT-1                
1 35933U 09051C   19267.70821850  .00000102  00000-0  33927-4 0  9995
2 35933  98.5995  78.4069 0004892 231.1158 128.9603 14.56396948531157
ITUPSAT1                
1 35935U 09051E   19267.13508731  .00000063  00000-0  25614-4 0  9994
2 35935  98.6104  78.0465 0007189 232.8668 127.1872 14.55552938530817
XIWANG-1 (HOPE-1)       
1 36122U 09072B   19267.70574164 -.00000040  00000-0  66888-5 0  9997
2 36122 100.0766 265.4916 0007857 115.7367 244.4562 13.16351263469777
JUGNU                   
1 37839U 11058B   19265.95707440  .00000296  00000-0  16169-4 0  9998
2 37839  19.9609 111.0082 0018911 308.5027 196.2847 14.12658906410772
SRMSAT                  
1 37841U 11058D   19267.06321896  .00000297  00000-0  18049-4 0  9992
2 37841  19.9712 163.0910 0011931 185.8384 314.9440 14.10639331410456
M-CUBED & EXP-1 PRIME   
1 37855U 11061F   19267.82622165  .00000505  00000-0  33219-4 0  9996
2 37855 101.7126 213.7975 0173054 145.7948 215.4557 15.05589137431540
STRAND-1                
1 39090U 13009E   19267.25754779  .00000037  00000-0  27999-4 0  9995
2 39090  98.4797 111.5414 0009326   6.5070 353.6235 14.35097712344380
SOMP                    
1 39134U 13015E   19267.77257536  .00001142  00000-0  60959-4 0  9998
2 39134  64.8629  62.6322 0035781 288.0572  71.6658 15.20331667355509
BEESAT-3                
1 39135U 13015F   19267.47404311  .00000624  00000-0  40519-4 0  9995
2 39135  64.8676  83.2862 0034074 297.4246  62.3415 15.17606538355085
BEESAT-2                
1 39136U 13015G   19267.48237072  .00000628  00000-0  41427-4 0  9998
2 39136  64.8683  87.3613 0025829 302.7964  57.0674 15.17026538355004
ZACUBE-1 (TSHEPISOSAT)  
1 39417U 13066B   19267.66345626  .00000183  00000-0  29245-4 0  9991
2 39417  97.5629 275.6601 0060435  73.2400 287.5433 14.81150129315547
GOMX-1                  
1 39430U 13066Q   19268.08707110  .00000180  00000-0  42059-4 0  9998
2 39430  97.7564 218.2036 0150308 304.4783  54.2295 14.59287654310953
CUBEBUG-2 (LO-74)       
1 39440U 13066AA  19267.85503803  .00000174  00000-0  30981-4 0  9990
2 39440  97.6083 260.5250 0081440 125.4299 235.4551 14.75887519314451
FUNCUBE-1 (AO-73)       
1 39444U 13066AE  19267.74476429  .00000235  00000-0  35113-4 0  9995
2 39444  97.5603 277.7753 0059495  66.5931 294.1524 14.81976302314451
UWE-3                   
1 39446U 13066AG  19267.28498059  .00000180  00000-0  30335-4 0  9999
2 39446  97.5848 267.1099 0071543 101.3402 259.5859 14.78422362313687
SPROUT                  
1 39770U 14029E   19268.12001877  .00000375  00000-0  47536-4 0  9998
2 39770  97.8882  10.7989 0009687 118.6921 241.5287 14.87427890289460
UNISAT-6                
1 40012U 14033C   19267.49694230  .00000131  00000-0  26723-4 0  9999
2 40012  97.7435 129.8298 0059120 141.1517 219.3965 14.74008374283095
DUCHIFAT-1              
1 40021U 14033M   19267.48074512  .00000418  00000-0  48435-4 0  9995
2 40021  97.9232 192.3973 0014370  87.3261 272.9602 14.90685189286114
QB50P1                  
1 40025U 14033R   19267.47934769  .00000196  00000-0  26826-4 0  9990
2 40025  97.9030 186.9950 0013886  96.6601 263.6197 14.88984229285872
NUDT-PHONESAT           
1 40900U 15049B   19267.99381998  .00001434  00000-0  63824-4 0  9992
2 40900  97.4388 276.3791 0012109 192.9956 196.6472 15.23054585222620
ZDPS 2A                 
1 40901U 15049C   19268.04014420  .00000379  00000-0  22032-4 0  9996
2 40901  97.4625 272.4546 0012313 215.6835 229.8513 15.17836633222154
ZDPS 2B                 
1 40902U 15049D   19268.13883897  .00000811  00000-0  43539-4 0  9995
2 40902  97.4576 269.9696 0012261 212.7741 214.3431 15.17691982222146
XW-2A                   
1 40903U 15049E   19268.15780453  .00001302  00000-0  32374-4 0  9993
2 40903  97.3288 311.4402 0014159 143.1452 302.4119 15.42105813225425
KAITUO 1A               
1 40904U 15049F   19268.11900111  .00000620  00000-0  36275-4 0  9991
2 40904  97.4710 268.4601 0013261 223.3861 223.0592 15.15438548221903
2015-049G               
1 40905U 15049G   19268.19881509  .00000399  00000-0  25315-4 0  9995
2 40905  97.4757 265.9868 0014503 218.1867 204.1620 15.14346595221787
XW-2C                   
1 40906U 15049H   19268.16239968  .00000131  00000-0  10333-4 0  9997
2 40906  97.4716 268.6280 0013466 214.3578 215.2545 15.15754017221912
XW-2D                   
1 40907U 15049J   19268.05708223  .00000613  00000-0  35367-4 0  9990
2 40907  97.4693 268.2052 0012942 211.1251 193.6459 15.15951907221911
LILACSAT-2              
1 40908U 15049K   19268.07331615  .00000144  00000-0  11598-4 0  9999
2 40908  97.4830 266.9429 0014632 219.9278 180.9254 15.13849629221693
XW-2F                   
1 40910U 15049M   19268.05515113  .00000814  00000-0  43996-4 0  9998
2 40910  97.4658 270.3487 0013924 201.9916 192.6778 15.17426255221938
XW-2B                   
1 40911U 15049N   19268.16334819  .00000182  00000-0  12953-4 0  9990
2 40911  97.4718 268.9762 0012933 211.3785 209.8843 15.15877129221823
KAITUO 1B               
1 40912U 15049P   19268.13884753  .00000825  00000-0  41738-4 0  9992
2 40912  97.4518 274.2273 0014421 182.4443 239.9877 15.19753038222268
TIANWANG 1C (TW-1C)     
1 40926U 15051B   19268.19737727  .00010072  00000-0  13850-3 0  9992
2 40926  97.1267 314.3005 0008024  19.8781  23.2821 15.57443381225489
TIANWANG 1A (TW-1A)     
1 40928U 15051D   19268.05563608  .00002267  00000-0  56430-4 0  9993
2 40928  97.1394 297.1715 0012769  76.9062 312.3407 15.41219981224329
LAPAN-A2                
1 40931U 15052B   19267.89441695  .00000771  00000-0  18391-4 0  9992
2 40931   5.9959  76.3438 0013006 104.0367 256.1227 14.76615036215808
E-ST@R-II               
1 41459U 16025D   19268.03654059  .00000849  00000-0  47267-4 0  9996
2 41459  98.1018 359.4889 0167899  28.5142 332.5118 15.05661437187344
AAUSAT 4                
1 41460U 16025E   19268.08654740  .00000413  00000-0  24844-4 0  9993
2 41460  98.0931   1.0292 0157622  19.6821 341.0417 15.07617861187492
NUSAT-1 (FRESCO)        
1 41557U 16033B   19268.18949107  .00001036  00000-0  41361-4 0  9999
2 41557  97.4156 355.1149 0012480 314.7257  45.2965 15.27385644185121
BEESAT-4                
1 41619U 16040W   19267.13495556  .00001071  00000-0  48018-4 0  9999
2 41619  97.3583 327.5036 0012447  47.4402 312.7884 15.23309212168694
CAS-2T & KS-1Q          
1 41847U 16066G   19267.23108505  .00000017  00000-0  13967-4 0  9990
2 41847  98.6965 309.4656 0364944 304.8401  51.8963 14.38006062151012
NAYIF-1 (EO-88)         
1 42017U 17008BX  19267.29451995  .00001152  00000-0  47981-4 0  9991
2 42017  97.3947 333.3491 0006418 170.3164 189.8199 15.25725070144808
MAX VALIER SAT          
1 42778U 17036P   19268.14166939  .00000674  00000-0  32359-4 0  9993
2 42778  97.3448 323.5933 0010976 233.6890 126.3333 15.22141908125212
RADFXSAT (FOX-1B)       
1 43017U 17073E   19267.72443859  .00000248  00000-0  25099-4 0  9993
2 43017  97.7201 185.2473 0257419 198.8907 160.2620 14.78631708 99744
FOX-1D (AO-92)          
1 43137U 18004AC  19267.95139892  .00000785  00000-0  35800-4 0  9992
2 43137  97.4791 335.4963 0007606 271.9778  88.0588 15.23597669 94463
ES'HAIL 2               
1 43700U 18090A   19268.12023161  .00000128  00000-0  00000+0 0  9994
2 43700   0.0105 235.6949 0001505 334.4377 222.6233  1.00272099  3285
FOX-1CLIFF (AO-95)      
1 43770U 18099N   19268.17240429 -.00000059  00000-0 -78272-7 0  9992
2 43770  97.7378 338.7467 0014833  11.6341 348.5219 14.94814367 44138
ITASAT 1                
1 43786U 18099AE  19268.16494266  .00000138  00000-0  17808-4 0  9999
2 43786  97.7393 338.9655 0015297   5.8381 354.3015 14.95179036 44145
JY1SAT (JO-97)          
1 43803U 18099AX  19268.20775334  .00000567  00000-0  56620-4 0  9993
2 43803  97.7350 338.8993 0015119   6.2303 353.9103 14.95316926 44148
PSAT2 (NO-104)          
1 44354U 19036R   19267.48834465  .00007876  00000-0  11887-3 0  9992
2 44354  28.5334 327.2554 0383957 350.6631   8.6980 14.98460313 13660
BRICSAT2 (NO-103)       
1 44355U 19036S   19267.46322869  .00014294  00000-0  21880-3 0  9997
2 44355  28.5336 327.0583 0379451 351.0364   8.3599 14.99532810 13672
JAISAT-1                
1 44419U 19038F   19267.95068410  .00000702  00000-0  44079-4 0  9998
2 44419  97.4994 228.4072 0021177 333.4907  26.5239 15.12331612 12317
